[{"OBJECT_NAME":"STARLINK-3452","OBJECT_ID":"2022-016AG","EPOCH":"2026-03-09T21:18:14.286240","MEAN_MOTION":15.08837099,"ECCENTRICITY":0.00014157,"INCLINATION":53.2173,"RA_OF_ASC_NODE":318.2629,"ARG_OF_PERICENTER":86.1361,"MEAN_ANOMALY":273.9793,"EPHEMERIS_TYPE":0,"CLASSIFICATION_TYPE":"U","NORAD_CAT_ID":51744,"ELEMENT_SET_NO":999,"REV_AT_EPOCH":22359,"BSTAR":0.00028966342,"MEAN_MOTION_DOT":4.325e-5,"MEAN_MOTION_DDOT":0},{"OBJECT_NAME":"PSLV DEB","OBJECT_ID":"2001-049PR","EPOCH":"2026-03-09T15:06:31.993344","MEAN_MOTION":15.1271322,"ECCENTRICITY":0.0041907,"INCLINATION":98.4927,"RA_OF_ASC_NODE":1.3381,"ARG_OF_PERICENTER":112.6989,"MEAN_ANOMALY":247.8677,"EPHEMERIS_TYPE":0,"CLASSIFICATION_TYPE":"U","NORAD_CAT_ID":34221,"ELEMENT_SET_NO":999,"REV_AT_EPOCH":29932,"BSTAR":0.00024868,"MEAN_MOTION_DOT":4.366e-5,"MEAN_MOTION_DDOT":0}]
